OBJECT_NAME,OBJECT_ID,EPOCH,MEAN_MOTION,ECCENTRICITY,INCLINATION,RA_OF_ASC_NODE,ARG_OF_PERICENTER,MEAN_ANOMALY,EPHEMERIS_TYPE,CLASSIFICATION_TYPE,NORAD_CAT_ID,ELEMENT_SET_NO,REV_AT_EPOCH,BSTAR,MEAN_MOTION_DOT,MEAN_MOTION_DDOT
SWARM A,2013-067B,2026-06-09T11:26:22.185888,15.50798144,.0002993,87.3329,59.1054,92.3947,267.7656,0,U,39452,999,70505,.17349E-3,.10036E-3,0
SWARM C,2013-067C,2026-06-09T11:26:12.235200,15.50800666,.0002969,87.3329,57.6866,92.5362,267.6239,0,U,39453,999,70501,.17269E-3,.9991E-4,0
BRITE-CA1 (TORONTO),2014-033L,2026-06-09T08:38:27.659904,14.72665836,.0077422,97.9729,289.4327,302.5173,56.8569,0,U,40020,999,64106,.10079E-3,.618E-5,0
OCO 2,2014-035A,2026-06-09T11:08:50.622720,14.57104969,.0001487,98.2016,101.8753,86.8439,273.2929,0,U,40059,999,63492,.94641E-4,.381E-5,0
BRITE-PL2 (HEWELIUSZ),2014-049B,2026-06-09T06:32:05.755776,14.94568700,.0015166,97.9089,272.2120,132.0173,228.2341,0,U,40119,999,64026,.18289E-3,.1922E-4,0
MMS 1,2015-011A,2026-06-09T14:00:04.000032,0.28317420,.832528,72.1001,348.8939,167.3102,242.7615,0,U,40482,999,138,0,-.9E-7,0
MMS 2,2015-011B,2026-06-09T14:00:04.000032,0.28317433,.8326064,72.1003,348.8961,167.3159,242.7498,0,U,40483,999,138,0,-.9E-7,0
MMS 3,2015-011C,2026-06-09T14:00:04.000032,0.28317390,.832525,72.1034,348.9006,167.3104,242.7462,0,U,40484,999,138,0,-.9E-7,0
MMS 4,2015-011D,2026-06-09T14:00:04.000032,0.28317373,.8324855,72.0995,348.8963,167.3182,242.7345,0,U,40485,999,138,0,-.9E-7,0
ASTROSAT,2015-052A,2026-06-09T06:54:17.865792,14.82494301,.000853,5.9953,212.2248,281.7410,78.1761,0,U,40930,999,57865,.10479E-3,.1533E-4,0
DAMPE,2015-078A,2026-06-09T12:29:13.924320,15.30767632,.0013732,97.4562,165.9499,100.6973,259.5815,0,U,41173,999,58337,.60642E-4,.1729E-4,0
PISAT,2016-059B,2026-06-09T12:21:38.668032,14.68970440,.0027837,97.8178,161.2976,228.0857,131.7975,0,U,41784,999,51861,.15581E-3,.87E-5,0
HXMT (HUIYAN),2017-034A,2026-06-09T12:05:38.279328,15.18424330,.0030188,43.0133,225.8227,96.4694,263.9593,0,U,42758,999,49649,.20027E-3,.4001E-4,0
FLYING LAPTOP,2017-042G,2026-06-09T12:28:27.682176,15.01096612,.0019178,97.4659,316.3501,146.7458,213.4976,0,U,42831,999,48530,.29577E-3,.3742E-4,0
ZHANGHENG 1-01 (CSES-1),2018-015C,2026-06-09T12:09:13.053312,15.20713054,.0017128,97.6866,326.0127,295.3302,64.6158,0,U,43194,999,46347,.26666E-3,.5813E-4,0
SALSAT,2020-068K,2026-06-09T11:48:56.784096,15.29688082,.0008742,97.8855,163.0891,339.5990,20.4898,0,U,46495,999,31418,.25454E-3,.7245E-4,0
IXPE,2021-121A,2026-06-09T12:00:02.998944,15.10180192,.000762,0.2313,15.6147,323.2165,201.8472,0,U,49954,999,531,.5227E-3,.9725E-4,0
SMILE,2026-109A,2026-05-24T15:40:35.120928,14.57062785,.00091232,70.0007,229.2745,259.5159,100.4951,0,U,69123,999,80,-.42378883E-3,-.1976E-4,0
